{"fetched_at":"2026-03-29T16:36:15Z","count":15609,"tles":[{"name":"STARLINK-30544","line1":"1 58055U 23158E   26087.91310630  .00000062  00000+0  11781-4 0  9997","line2":"2 58055  43.0045 278.1707 0001435 260.0565 100.0124 15.27574209136516","category":"Starlink"}]}