{
  "norad_id": 58055,
  "name": "STARLINK-30544",
  "history": [
    {
      "epoch": "2026-03-28T21:54:52.384320Z",
      "apogee_km": 484.05101912486316,
      "perigee_km": 482.0818537386067,
      "latitude_deg": -5.003664228618345e-05,
      "longitude_deg": 123.12564407811645,
      "height_km": 483.0136474791281,
      "semi_major_axis_km": 6861.203436431734,
      "eccentricity": 0.0001435,
      "inclination_deg": 43.0045,
      "raan_deg": 278.1707,
      "arg_perigee_deg": 260.0565,
      "mean_anomaly_deg": 100.0124,
      "mean_motion_rev_day": 15.27574209
    }
  ]
}